FID,Name,Class,County,State,Latitude,Longitude
11728,Squaw Canyon,Valley,"Graham, Pinal",Arizona,33.1699685,-110.4362224
11729,Squaw Canyon,Valley,Coconino,Arizona,36.39118736,-112.3009574
11730,Squaw Canyon,Valley,Mohave,Arizona,36.41801576,-113.8930692
11732,Squaw Creek,Stream,Graham,Arizona,33.032004,-110.2487008
11733,Squaw Creek,Stream,Graham,Arizona,33.4747757,-109.8895344
11734,Squaw Creek Tank,Reservoir,Graham,Arizona,33.42790039,-109.8936981
11735,Squaw Dance Valley,Valley,Navajo,Arizona,36.37882999,-110.1952587
11736,Squaw Dress Ridge,Ridge,Gila,Arizona,33.9373651,-110.3271894
11737,Squaw Lake,Reservoir,Apache,Arizona,35.01676315,-109.2334039
11738,Squaw Mesa,Flat,Yavapai,Arizona,33.9716999,-112.3501665
11739,Squaw Mountain,Summit,Cochise,Arizona,31.67274654,-109.1663528
11740,Squaw Peak,Pillar,Yuma,Arizona,33.339756,-114.0343816
11742,Squaw Peak,Summit,La Paz,Arizona,34.16612449,-113.9507624
11743,Squaw Peak,Summit,Yavapai,Arizona,34.42279729,-112.7777769
11744,Squaw Peak,Summit,Mohave,Arizona,35.89569315,-114.4266248
11749,Squaw Pockets,Reservoir,Mohave,Arizona,36.3765845,-113.7416809
11750,Squaw Saddle,Gap,Graham,Arizona,32.7259015,-110.3228655
11751,Squaw Spring,Spring,Graham,Arizona,33.06023888,-110.3832608
11752,Squaw Spring,Spring,Coconino,Arizona,36.39461928,-112.2855219
11753,Squaw Springs,Spring,Apache,Arizona,35.13488681,-109.4278937
11754,Squaw Tank,Reservoir,Graham,Arizona,32.84517701,-109.9877377
11755,Squaw Tank,Reservoir,Mohave,Arizona,36.36385379,-113.7622022
11756,Squaw Tanks,Reservoir,Yuma,Arizona,33.3369783,-114.0149366
11757,Squaw Tit,Summit,Maricopa,Arizona,32.67723966,-112.3781275
28735,East Branch Squaw Creek,Stream,Yavapai,Arizona,34.1464221,-111.9340411
31134,Little Squaw Creek,Stream,"Yavapai, Maricopa",Arizona,34.0208672,-112.1615486
31135,Little Squaw Mountain,Summit,Coconino,Arizona,35.38856163,-112.0122673
31811,Middle Fork Squaw Creek,Stream,Yavapai,Arizona,34.1239224,-111.9601528
32370,North Fork Squaw Creek,Stream,Yavapai,Arizona,34.1253109,-112.0012651
34668,South Fork Squaw Creek,Stream,Yavapai,Arizona,34.1197558,-111.9593195
34761,Squaw Butte,Summit,Yavapai,Arizona,34.27292837,-111.6948566
34762,Squaw Canyon,Valley,Maricopa,Arizona,33.47314641,-111.3634057
34763,Squaw Coxcombs,Summit,Coconino,Arizona,35.45501662,-112.0434394
34764,Squaw Creek,Stream,Yavapai,Arizona,34.2853092,-111.6901464
34765,Squaw Creek,Stream,Greenlee,Arizona,33.3889478,-109.1895177
34766,Squaw Creek,Stream,Apache,Arizona,33.7611621,-109.6523142
34767,Squaw Creek,Stream,Yavapai,Arizona,34.0861443,-112.1121024
34768,Squaw Creek Mesa,Summit,Yavapai,Arizona,34.0697508,-112.059246
34769,Squaw Creek Tank,Reservoir,Yavapai,Arizona,34.28054262,-111.710791
34770,Squaw Flat,Flat,Maricopa,Arizona,33.9711508,-111.5276376
34771,Squaw Flat Spring,Spring,Maricopa,Arizona,33.97038961,-111.518789
34772,Squaw Gulch,Valley,Santa Cruz,Arizona,31.5129475,-110.7994575
34773,Squaw Mesa,Summit,Gila,Arizona,34.00971938,-110.9571827
34774,Squaw Mountain,Summit,Yavapai,Arizona,34.07910673,-111.9856539
34775,Squaw Mountain,Summit,Coconino,Arizona,35.42347487,-112.0130992
34776,Squaw Nest Mountain,Summit,Gila,Arizona,34.14478422,-111.2367679
34777,Squaw Peak,Summit,Santa Cruz,Arizona,31.58628938,-110.8377641
34778,Squaw Peak,Summit,Gila,Arizona,33.56486638,-110.8630729
34779,Squaw Peak,Summit,Gila,Arizona,34.00976595,-110.9572042
34780,Squaw Peak,Summit,Yavapai,Arizona,34.46946603,-111.8754176
34781,Squaw Peak Canyon,Valley,Yavapai,Arizona,34.51271621,-111.8484976
34783,Squaw Peak Tank,Reservoir,Yavapai,Arizona,34.46256373,-111.8969061
34784,Squaw Peak Tank,Reservoir,Yavapai,Arizona,34.50845546,-111.8516581
34785,Squaw Spring,Spring,Gila,Arizona,33.28086,-110.81679
34786,Squaw Tank,Reservoir,Navajo,Arizona,34.5858392,-110.5992805
34787,Squaw Wash,Stream,Navajo,Arizona,34.6444753,-110.5709607
35713,Upper Squaw Tank,Reservoir,Navajo,Arizona,34.58213517,-110.6343875
37080,Squaw Flat,Flat,Maricopa,Arizona,33.6311596,-111.2006805
38087,Squaw Tank,Reservoir,Coconino,Arizona,35.11310966,-111.3748798
38842,Squaw Peak,Summit,Yavapai,Arizona,35.21542035,-113.1017597
39809,Squaw Basin Tank,Reservoir,Gila,Arizona,34.29074917,-111.6114518
39810,Squaw Tank,Reservoir,Gila,Arizona,34.0059473,-110.9419798
42003,Squaw Tank South,Reservoir,Navajo,Arizona,34.58545837,-110.6000575
42904,Squaw Creek,Stream,Graham,Arizona,32.8036775,-110.3014769
42915,Squaw Tank,Reservoir,Graham,Arizona,32.7506233,-110.3478667
43000,Squaw Peaks Cove,Bay,Mohave,Arizona,35.7563753,-114.6930315
148594,Squaw Shoals (historical),Bar,Tuscaloosa,Alabama,33.4640011,-87.3513898
160663,Squaw Creek,Stream,Winston,Alabama,34.0887149,-87.4214043
169845,Squaw Mountain,Summit,Routt,Colorado,40.97765408,-107.2300464
171053,Squaw Rock,Summit,Weld,Colorado,40.96735445,-104.5780369
174527,Squaw Fingers,Pillar,Mesa,Colorado,39.0708151,-108.7203767
175689,Squaw Creek,Stream,Summit,Colorado,39.8105413,-106.1897465
176263,Squaw Creek,Stream,Eagle,Colorado,39.658875,-106.6386454
176603,Squaw Canyon,Valley,"Dolores, San Juan","Utah, Colorado",37.44656573,-109.1119561
176605,Squaw Point,Summit,"Dolores, San Juan","Utah, Colorado",37.64203642,-108.9450963
179169,Squaw,Pillar,Montezuma,Colorado,37.1266613,-108.6895391
182066,Squaw Mountain,Summit,Clear Creek,Colorado,39.67904649,-105.4927859
183071,Squaw Hill,Summit,Yuma,Colorado,39.880269,-102.1849134
184230,Squaw Creek,Stream,Archuleta,Colorado,37.2319479,-107.3997722
184430,Little Squaw Creek,Stream,Archuleta,Colorado,37.2283368,-107.4094946
184522,Squaw Canyon,Valley,Archuleta,Colorado,37.18227911,-107.0245768
187265,Squaw Gulch,Valley,Ouray,Colorado,38.00138746,-107.6941094
187874,Squaw Creek,Stream,Hinsdale,Colorado,37.7244442,-107.2542204
187882,Squaw Lake,Lake,Hinsdale,Colorado,37.63730138,-107.2568408
187889,Little Squaw Creek,Stream,Hinsdale,Colorado,37.728611,-107.2344978
188080,Squaw Pass,Gap,Hinsdale,Colorado,37.6016682,-107.2161622
188151,Squaw Hill,Summit,Montrose,Colorado,38.43942544,-107.6950477
188167,Squaw Creek,Stream,Montrose,Colorado,38.4435992,-107.5567252
188843,Squaw Gulch,Valley,Gunnison,Colorado,38.82050149,-106.9223694
189450,Squaw Creek,Stream,Chaffee,Colorado,38.5833198,-106.0822422
190200,Squaw Creek,Stream,Saguache,Colorado,38.1211076,-106.4658666
191268,Squaw Mountain,Summit,Teller,Colorado,38.71480589,-105.1465493
191298,Squaw Gulch,Valley,Teller,Colorado,38.723639,-105.175511
191543,Squaw Creek,Stream,Fremont,Colorado,38.6063839,-105.5308298
196356,West Squaw Canyon,Valley,"Cimarron, Baca","Oklahoma, Colorado",36.97666866,-102.6664959
196357,East Squaw Canyon,Valley,"Cimarron, Baca","Oklahoma, Colorado",36.97665194,-102.6663643
204711,Squaw Pass,Gap,Clear Creek,Colorado,39.679155,-105.4736076
211116,Squaw Hollow Brook,Stream,Windham,Connecticut,41.850599,-72.176932
211117,Squaw Rock,Summit,Windham,Connecticut,41.7550989,-71.8667383
211118,Squaw Rocks,Island,New Haven,Connecticut,41.2498191,-72.8075986
219270,Big Squaw Valley,Valley,Lake,California,39.45554402,-122.9098101
222899,East Fork Squaw Creek,Stream,Shasta,California,40.9501549,-122.0708343
227378,Little Squaw Valley,Basin,Lake,California,39.3946058,-122.9727784
234374,North Fork Squaw Creek,Stream,Shasta,California,40.7379266,-122.4883471
235056,South Fork Squaw Creek,Stream,Shasta,California,40.7379266,-122.4883471
235300,Squaw Canyon,Valley,Plumas,California,40.11100226,-120.4888043
235301,Squaw Creek,Stream,Mendocino,California,39.8301527,-123.6472427
235302,Squaw Creek,Stream,Humboldt,California,40.0645907,-123.7394714
235303,Squaw Creek,Stream,Shasta,California,40.4062622,-122.551401
235304,Squaw Creek,Stream,Shasta,California,40.7370935,-122.4497345
235305,Squaw Creek,Stream,Colusa,California,39.3157192,-122.4891525
235306,Squaw Creek,Stream,Placer,California,39.2115732,-120.1985282
235307,Squaw Creek,Stream,Humboldt,California,40.2687485,-124.2264339
235308,Squaw Creek,Stream,Humboldt,California,40.3488889,-123.9883333
235309,Squaw Creek,Stream,Humboldt,California,40.9342942,-124.0370074
235310,Squaw Creek,Stream,Sonoma,California,38.8243492,-122.8780509
235311,Squaw Creek Ridge,Ridge,Humboldt,California,40.31741729,-124.0178327
235313,Squaw Flat,Flat,Inyo,California,37.0499308,-118.0492578
235314,Squaw Flat,Flat,Placer,California,38.989901,-120.6940946
235315,Squaw Flat,Flat,Shasta,California,41.0843261,-121.7688809
235316,Squaw Flat,Flat,Glenn,California,39.5107143,-122.3924875
235317,Squaw Hollow,Valley,Tehama,California,39.92304785,-122.3149565
235318,Squaw Opening,Flat,Mendocino,California,39.2096164,-123.4250092
235320,Squaw Peak,Summit,Plumas,California,40.04030246,-120.4354602
235321,Squaw Peak,Summit,Modoc,California,41.41881017,-120.2188838
235322,Squaw Rock Slide,Slope,Mendocino,California,38.9124014,-123.04889
235323,Squaw Springs (historical),Spring,Inyo County,California,37.0027087,-118.0431459
235324,Squaw Valley,Valley,Placer,California,39.21172914,-120.199027
235326,Squaw Valley Creek,Stream,Lake,California,39.4365489,-122.9350001
235327,Squaw Valley Creek,Stream,"Siskiyou, Shasta",California,41.0407088,-122.2066721
235328,Squaw Valley Peak,Summit,Plumas,California,40.02871971,-120.4010549
235329,Squaw Valley Peak Springs,Spring,Plumas,California,40.0354559,-120.4054924
235331,Squaw Valley Spring,Spring,Plumas,California,40.0121218,-120.4821618
237484,West Fork Squaw Creek,Stream,Shasta,California,41.018489,-122.0597231
249836,Squaw Canyon,Valley,San Diego,California,32.95379235,-116.3115933
249837,Squaw Lake,Lake,Imperial,California,32.8992091,-114.4749483
249838,Squaw Mountain,Summit,Riverside,California,33.50864995,-117.346138
249839,Squaw Mountain,Summit,San Bernardino,California,35.47046185,-115.8664052
249840,Squaw Peak,Summit,San Diego,California,33.177266,-116.115006
249841,Squaw Peak,Summit,San Bernardino,California,34.18945451,-114.3770796
249842,Squaw Peak,Summit,Monterey,California,36.0585723,-120.6043302
249843,Squaw Spring,Spring,Riverside,California,35.91021301,-117.0095777
249845,Squaw Tank,Reservoir,San Bernardino,California,33.929157,-116.075397
249846,Squaw Tit,Summit,Plumas,California,35.36262958,-115.8319179
253924,Squaw Valley,Basin,Fresno,California,36.7332817,-119.2509517
254522,Squaw Creek,Stream,Ventura,California,34.5283245,-118.9078759
259706,East Fork North Fork Squaw Creek,Stream,Shasta,California,40.9737656,-122.1050021
264215,North Fork Squaw Creek,Stream,Shasta,California,40.9123761,-122.1172243
264336,Old Squaw Lake,Lake,Fresno,California,37.27327897,-118.8276229
267620,Squaw Creek,Stream,Trinity,California,40.9423583,-123.385322
267621,Squaw Creek,Stream,Shasta,California,40.7762625,-122.2094479
267622,Squaw Creek Arm,Bay,Shasta,California,40.7934855,-122.1672248
267624,Squaw Flat,Flat,Placer,California,38.9415649,-120.9877205
267625,Squaw Flat,Flat,Trinity,California,40.5240355,-122.9533566
267627,Squaw Gulch,Valley,Placer,California,38.95893535,-120.8846772
267628,Squaw Gulch,Valley,Trinity,California,40.86158514,-123.1341703
267629,Squaw Hollow,Valley,"Calaveras, Tuolumne",California,38.26548565,-120.2734901
267630,Squaw Hollow,Valley,El Dorado,California,38.66982027,-120.7527535
267631,Squaw Hollow Creek,Stream,Tehama,California,40.268762,-122.8164044
267632,Squaw Hollow Creek,Stream,El Dorado,California,38.634905,-120.8177135
267633,Squaw Lake,Lake,Fresno,California,37.47701946,-118.9233195
267634,Squaw Lake,Lake,Sierra,California,39.66886786,-120.6526031
267635,Squaw Leap,Cliff,Fresno,California,37.0682825,-119.5440257
267636,Squaw Peak,Summit,Placer,California,39.18051814,-120.269649
267637,Squaw Peak,Summit,Siskiyou,California,41.55740502,-121.7637046
267638,Squaw Queen Creek,Stream,Plumas,California,40.0576752,-120.5729992
267640,Squaw Valley,Valley,Lassen,California,40.70334375,-120.9817755
273878,Squaw Canyon,Valley,Los Angeles,California,34.37682398,-117.9750736
273879,Squaw Creek,Stream,Tulare,California,36.3505015,-118.7514839
273880,Squaw Flat,Flat,Ventura,California,34.5391575,-118.8973199
273881,Squaw Spring,Spring,Ventura,California,34.53693321,-118.8996584
306442,Squaw Pond,Lake,Marion,Florida,29.0819396,-81.7951807
372562,East Fork Squaw Creek,Stream,Owyhee,Idaho,43.3154345,-116.8843028
373672,Little Squaw Creek,Stream,Owyhee,Idaho,43.3857121,-116.8923614
374206,North Fork Squaw Creek,Stream,Bonner,Idaho,48.7327046,-116.8241103
375226,Squaw Butte,Summit,Owyhee,Idaho,43.26281926,-116.8849709
375227,Squaw Butte,Summit,Gem,Idaho,44.03266103,-116.4120671
375229,Squaw Creek,Stream,Cassia,Idaho,42.1399135,-114.0750188
375230,Squaw Creek,Stream,Caribou,Idaho,42.7138071,-111.9113465
375231,Squaw Creek,Stream,"Camas, Gooding",Idaho,43.1271228,-114.9175628
375232,Squaw Creek,Stream,"Bonneville, Bingham",Idaho,43.3524166,-111.7788495
375233,Squaw Creek,Stream,Owyhee,Idaho,42.1960094,-116.1423257
375234,Squaw Creek,Stream,"Malheur, Owyhee","Idaho, Oregon",42.5621527,-117.0489407
375235,Squaw Creek,Stream,Power,Idaho,42.6735245,-112.6455404
375236,Squaw Flat,Flat,Owyhee,Idaho,42.1646218,-116.0620445
375237,Squaw Flat,Flat,Camas,Idaho,43.2635118,-114.7795041
375238,Squaw Gardens,Area,Owyhee,Idaho,42.7809974,-116.4965045
375239,Squaw Spring,Spring,Owyhee,Idaho,42.1489474,-116.0463108
375240,Squaw Spring,Spring,Owyhee,Idaho,42.5354892,-116.255655
375241,Squaw Springs,Spring,Franklin,Idaho,42.1185347,-111.929953
375819,West Fork Squaw Creek,Stream,Owyhee,Idaho,43.3154345,-116.8843028
376386,Squaw Creek,Stream,Elmore,Idaho,43.0943372,-115.9412053
377604,Big Squaw Creek,Stream,Idaho,Idaho,45.473525,-114.9639948
384964,Little Squaw Creek,Stream,Cassia,Idaho,42.1388024,-114.0802966
384965,Little Squaw Creek,Stream,Idaho,Idaho,45.4201922,-114.8664909
384966,Little Squaw Creek,Stream,"Valley, Gem",Idaho,44.1146118,-116.304301
384967,Little Squaw Creek Spring,Spring,Cassia,Idaho,42.1624314,-114.1105348
387731,North Fork Little Squaw Creek,Stream,Valley,Idaho,44.2062797,-116.1834655
387791,North Fork Squaw Creek,Stream,Idaho,Idaho,45.4176639,-116.424859
387792,North Fork Squaw Creek,Stream,Lemhi,Idaho,44.3554704,-113.3300195
390083,Second Fork Squaw Creek,Stream,Gem,Idaho,44.3085,-116.3112505
391036,South Fork Squaw Creek,Stream,Idaho,Idaho,45.4179417,-116.424859
391274,Squaw Bar,Bar,Idaho,Idaho,45.5104443,-116.2987467
391275,Squaw Bay,Bay,Bonner,Idaho,48.7282598,-116.8310546
391277,Squaw Camp Creek,Stream,Lemhi,Idaho,45.2288065,-114.3211944
391282,Squaw Creek,Stream,"Bonner, Boundary",Idaho,48.7329824,-116.8252214
391283,Squaw Creek,Stream,Custer,Idaho,44.2492024,-114.4556449
391285,Squaw Creek,Stream,"Valley, Gem",Idaho,43.9376665,-116.3670761
391286,Squaw Creek,Stream,Bonneville,Idaho,43.049087,-111.1118818
391287,Squaw Creek,Stream,Bonneville,Idaho,43.4207503,-111.333837
391288,Squaw Creek,Stream,"Owyhee, Canyon",Idaho,43.4623803,-116.7604126
391289,Squaw Creek,Stream,"Custer, Butte",Idaho,44.1304661,-113.3847335
391291,Squaw Creek,Stream,Custer,Idaho,44.2193621,-113.6280741
391292,Squaw Creek,Stream,Lemhi,Idaho,44.3340817,-113.3564069
391293,Squaw Creek,Stream,Lemhi,Idaho,44.7282586,-113.7258854
391294,Squaw Creek,Stream,Valley,Idaho,44.8449094,-115.1053798
391295,Squaw Creek,Stream,Lemhi,Idaho,45.3990846,-114.17008
391296,Squaw Creek,Stream,Idaho,Idaho,45.4071101,-116.3306889
391297,Squaw Creek,Stream,Idaho,Idaho,46.0918636,-114.6939908
391302,Squaw Creek Spring,Spring,Custer,Idaho,44.18630586,-113.6250189
391303,Squaw Flat,Flat,Adams,Idaho,44.7679458,-116.2526331
391304,Squaw Gulch,Valley,Lemhi,Idaho,45.30043206,-114.3765746
391305,Squaw Joe Canyon,Valley,Twin Falls,Idaho,42.34694464,-114.5039512
391306,Squaw Joe Spring,Spring,Twin Falls,Idaho,42.313507,-114.4731011
391307,Squaw Lake,Lake,Valley,Idaho,44.99212454,-116.0001423
391308,Squaw Meadows,Flat,Owyhee,Idaho,42.3587809,-116.4706709
391311,Squaw Point,Summit,Idaho,Idaho,45.21878989,-115.9688815
391312,Squaw Saddle,Gap,Idaho,Idaho,45.4468352,-116.2087429
391315,Squaw Springs,Spring,Butte,Idaho,44.1235217,-113.397789
391316,Squawberry Spring,Spring,Idaho,Idaho,46.44331039,-115.5910589
391317,Squawboard Meadow,Flat,Lemhi,Idaho,44.9674226,-114.1722945
391318,Squawtit,Summit,Custer,Idaho,44.17768786,-113.6108387
392006,Third Fork Squaw Creek,Stream,Gem,Idaho,44.3729441,-116.3001402
392656,Upper Squaw Creek Spring,Spring,Cassia,Idaho,42.19261167,-114.1128656
393203,West Fork Squaw Creek,Stream,Bonneville,Idaho,43.081031,-111.1477162
393204,West Fork Squaw Creek,Stream,Lemhi,Idaho,45.4638061,-114.2295268
395987,Squaw Creek Vee,Area,"Malheur, Owyhee","Idaho, Oregon",42.559111,-117.032522
397200,Squaw Meadow,Flat,Idaho,Idaho,45.6049012,-115.7351315
397201,Squaw Peak,Summit,Lemhi,Idaho,45.52580266,-114.6031144
398171,Squaw Creek Reservoir,Reservoir,Owyhee,Idaho,42.19131368,-116.0897067
398173,Squaw Meadows Reservoir Number One,Reservoir,Owyhee,Idaho,42.37912697,-116.486255
398174,Squaw Meadows Reservoir Number Two,Reservoir,Owyhee,Idaho,42.34308263,-116.4809759
398175,Squaw Meadows Reservoir Number Three,Reservoir,Owyhee,Idaho,42.36898824,-116.4419925
411847,Laughing Squaw Sloughs,Gut,Cook,Illinois,41.6700322,-87.8611659
419016,Squaw Creek,Stream,Lake,Illinois,42.3983541,-88.1567512
419017,Squaw Island,Island,Calhoun,Illinois,38.9403268,-90.4909506
429791,Township of Squaw Grove,Civil,DeKalb,Illinois,41.7625131,-88.65874009
444031,Squaw Branch,Stream,Carroll,Indiana,40.6253154,-86.6813959
444032,Squaw Creek,Stream,Warrick,Indiana,38.0636556,-87.3936217
444033,Squaw Creek,Stream,Clark,Indiana,38.5839512,-85.4266252
444034,Squaw Creek,Stream,"Whitley, Allen",Indiana,41.0450474,-85.3091407
444035,Squaw Hollow,Valley,Floyd,Indiana,38.36734724,-85.8474697
444036,Squaw Run,Stream,Marion,Indiana,39.8550402,-85.9705378
444037,Squaw Run,Stream,Franklin,Indiana,39.5144963,-84.8221778
461813,South Squaw Creek,Stream,Clarke,Iowa,41.1072175,-93.7693869
461932,Squaw Creek,Stream,Franklin,Iowa,42.7455289,-93.1018655
461935,Squaw Creek,Stream,Jasper,Iowa,41.680822,-93.2668724
461936,Squaw Creek,Stream,"Clarke, Warren",Iowa,41.3333264,-93.5891051
461937,Squaw Creek,Stream,Ringgold,Iowa,40.8208239,-94.3296789
465645,Squaw Creek,Stream,Shelby,Iowa,41.5316558,-95.1286037
468747,Township of Squaw,Civil,Warren,Iowa,41.20517447,-93.61556325
469268,Squaw Creek,Stream,"Cherokee, Ottawa","Oklahoma, Kansas",36.9492371,-94.9930139
469390,Squaw Creek,Stream,Montgomery,Kansas,37.2564554,-95.7883149
469500,Squaw Creek,Stream,Chautauqua,Kansas,37.2369792,-96.4619541
470952,Squaw Branch,Stream,Norton,Kansas,39.984728,-100.0529083
472971,Squaw Creek,Stream,Brown,Kansas,39.7113887,-95.6691505
473005,Squaw Creek,Stream,"Doniphan, Brown",Kansas,39.7819447,-95.3269215
578375,White Squaw Island,Island,Penobscot,Maine,45.044787,-68.6658647
598607,Squaw Rock,Island,Norfolk,Massachusetts,42.3028764,-71.0119936
603274,Squaw Swamp (historical),Swamp,Plymouth,Massachusetts,41.795939,-70.536696
603461,Squaw Island Marshes,Swamp,Barnstable,Massachusetts,41.62894884,-70.31646693
607738,Squaw Peak,Summit,Berkshire,Massachusetts,42.2473104,-73.3398318
613151,Squawbetty Hill,Summit,Bristol,Massachusetts,41.8884346,-71.03421
615794,Squaw Island,Cape,Barnstable,Massachusetts,41.6278889,-70.3161332
619771,Squaw Creek,Stream,Delta,Michigan,45.970237,-87.2226379
630773,Little Squaw Lake,Lake,Marquette,Michigan,46.28769972,-88.05909245
638662,Squaw Bay,Bay,Alpena,Michigan,45.0030675,-83.4491415
638663,Squaw Beach,Beach,Marquette,Michigan,46.824923,-87.710686
638664,Squaw Creek,Canal,"Saginaw, Tuscola",Michigan,43.4775228,-83.6921869
638667,Squaw Creek,Stream,"Marquette, Dickinson",Michigan,46.2230002,-88.0362454
638668,Squaw Creek,Stream,Lenawee,Michigan,41.994489,-84.1538328
638669,Squaw Creek,Stream,Ingham,Michigan,42.6903122,-84.2416341
638670,Squaw Creek,Stream,Lapeer,Michigan,43.229748,-83.2991147
638671,Squaw Creek,Stream,Isabella,Michigan,43.6261397,-85.0225256
638672,Squaw Creek Drain,Canal,Lapeer,Michigan,43.2964136,-83.2949484
638673,Squaw Island,Island,Charlevoix,Michigan,45.8369401,-85.586759
638674,Squaw Island,Island,Chippewa,Michigan,46.0394641,-83.9041732
638675,Squaw Lake,Lake,Calhoun,Michigan,42.2134535,-84.97754732
638676,Squaw Lake,Lake,Allegan,Michigan,42.6411438,-85.6150196
638677,Squaw Lake,Lake,Oakland,Michigan,42.8161411,-83.298274
638678,Squaw Lake,Lake,Kent,Michigan,43.19986992,-85.67217201
638679,Squaw Lake,Lake,Lapeer,Michigan,43.27579576,-83.3010537
638680,Squaw Lake,Lake,Kalkaska,Michigan,44.80513554,-84.91897635
638681,Squaw Lake,Lake,Marquette,Michigan,46.29936279,-88.06547382
638682,Squaw Lake,Lake,Genesee,Michigan,42.8278915,-83.74678783
638683,Squaw Lake Drain,Canal,Calhoun,Michigan,42.2289318,-84.9794241
638684,Squaw Point,Cape,Delta,Michigan,45.8310778,-87.0037491
658441,Squaw Lake,Populated Place,Itasca,Minnesota,47.6324527,-94.1363333
722268,Middle Branch Squaw Creek,Stream,"Holt, Nodaway, Atchison",Missouri,40.1830506,-95.2480317
722442,Squaw Creek,Stream,"Holt, Nodaway, Atchison",Missouri,40.1561068,-95.2646988
726976,East Branch Squaw Creek,Stream,Holt,Missouri,40.1805508,-95.2558097
726977,Squaw Creek Ditch,Canal,Holt,Missouri,40.0844411,-95.2677548
726979,Squaw Run Creek,Stream,Christian,Missouri,37.043108,-92.9935096
736108,Squaw Bend,Bend,Richardson,Nebraska,40.0066655,-95.3102561
738483,Squaw Hollow,Valley,Madison,Missouri,37.3394962,-90.4548387
740021,Squaw Creek,Stream,Atchison,Missouri,40.49822,-95.28116
791384,Squaw Meadows,Flat,Flathead,Montana,48.2763505,-114.7790312
791385,Squaw Meadows Creek,Stream,Flathead,Montana,48.2816285,-114.7631974
833749,Squaw Creek,Stream,McPherson,Nebraska,41.4644376,-101.1646074
833753,Squaw Tit Butte,Summit,Sheridan,Nebraska,42.8427542,-102.7632276
834623,West Squaw Creek,Stream,Sioux,Nebraska,42.8708084,-103.9903928
835676,Squaw Creek,Stream,Sioux,Nebraska,42.9094112,-103.7546509
835677,Squaw Creek,Stream,Dawes,Nebraska,42.7066354,-103.3840886
835678,Squaw Mound,Summit,Dawes,Nebraska,42.59154074,-103.2601903
838358,Squaw Valley,Basin,Washoe,Nevada,40.845747,-119.549346
840288,East Squaw Creek,Stream,Elko,Nevada,41.0377029,-114.4286359
841735,Little Squaw Valley,Flat,Humboldt,Nevada,40.8421262,-117.5659571
843955,Squaw Butte,Summit,Pershing,Nevada,40.4715766,-117.6806775
843956,Squaw Butte,Summit,Lander,Nevada,40.2393635,-116.7500894
843957,Squaw Creek,Stream,Mineral,Nevada,38.6163097,-118.7331937
843958,Squaw Creek,Stream,Elko,Nevada,41.2193498,-116.6973252
843960,Squaw Creek Valley,Valley,Washoe,Nevada,40.6807346,-119.5454706
843962,Squaw Mountain,Summit,Elko,Nevada,40.45745142,-115.9050586
843963,Squaw Peaks,Summit,Clark,Nevada,35.7608195,-114.706921
843964,Squaw Tit,Summit,Lander,Nevada,40.3035258,-117.3831652
843965,Squaw Valley,Basin,Elko,Nevada,41.1840722,-116.7339925
844737,West Squaw Creek,Stream,Elko,Nevada,41.0921459,-114.7155915
845678,Squaw Creek,Stream,Elko,Nevada,41.1199081,-116.4378708
845679,Squaw Hills,Summit,Nye,Nevada,38.7004885,-116.111996
845680,Squaw Knoll,Summit,Lincoln,Nevada,38.2491253,-114.4913823
845681,Squaw Peak,Summit,White Pine,Nevada,39.2660502,-114.89363
847208,Squaw Creek,Stream,Washoe,Nevada,40.6807346,-119.5454706
847806,Squaw Creek,Stream,Mineral,Nevada,38.373389,-118.920297
849668,Squaw Valley Creek,Stream,Humboldt,Nevada,40.8401818,-117.5573458
849669,Big Squaw Valley,Basin,Humboldt,Nevada,40.8385152,-117.5851244
849851,North Fork Squaw Creek,Stream,Elko,Nevada,41.1032575,-114.5308622
849852,South Fork East Squaw Creek,Stream,Elko,Nevada,41.0990909,-114.5239175
850063,North Fork East Squaw Creek,Stream,Elko,Nevada,41.1029798,-114.5308622
850660,Squaw Peak,Summit,Mineral,Nevada,39.011034,-118.4295759
852186,Squaw Peak,Summit,Humboldt,Nevada,41.2321236,-117.94625
856392,Squaw Wells Spring,Spring,Nye,Nevada,38.7202108,-116.083384
857000,Squaw With a Basket,Pillar,Washoe,Nevada,39.9785975,-119.4989308
857490,Squawtip,Summit,Nye,Nevada,38.0532692,-116.4344988
860383,Little Squaw Creek,Stream,Mineral,Nevada,38.4788114,-118.6481896
861556,Squaw Flat,Flat,Nye,Nevada,38.5791003,-116.4753409
861557,Squaw Point,Summit,White Pine,Nevada,39.24462032,-114.8910543
862559,Squaw Tit Butte,Summit,Humboldt,Nevada,41.78379515,-117.403552
863350,Squaw Valley Reservoir,Reservoir,Washoe,Nevada,40.82494135,-119.5368898
872724,Squaw Cove,Bay,Carroll,New Hampshire,43.7839616,-71.5122972
880833,Squaw Brook,Stream,"Passaic, Bergen",New Jersey,40.9585906,-74.1857359
880834,Squaw Lake,Reservoir,Burlington,New Jersey,39.8443263,-74.77697326
895285,Squaw Peak,Summit,Sandoval,New Mexico,35.4300337,-107.0372627
895286,Squaw Spring,Spring,San Juan,New Mexico,36.88417201,-108.3845156
898441,Squaw Tit Canyon,Valley,Sierra,New Mexico,33.0053569,-106.6347312
899925,Squaw Mountain,Summit,Doña Ana,New Mexico,32.3134268,-106.5902743
900404,Squaw Tit,Summit,Sierra,New Mexico,32.9867461,-106.6325085
902364,Squaw Tank,Reservoir,Otero,New Mexico,32.681757,-106.0585976
911371,Squaw Creek,Stream,Grant,New Mexico,33.1528481,-108.1286572
911372,Squaw Creek,Stream,"Sierra, Catron",New Mexico,33.503121,-107.9894918
911373,Squaw Peak,Summit,Socorro,New Mexico,33.9249229,-107.2749205
912836,Squaw Creek Ridge Tank,Reservoir,Grant,New Mexico,33.1539212,-108.047988
923774,Squaw Canyon,Valley,Chaves,New Mexico,32.9823249,-104.8480299
923775,Squaw Creek,Stream,Chaves,New Mexico,32.9737142,-104.837474
955704,Little Squaw Brook,Stream,Hamilton,New York,43.6795106,-74.4918234
966166,Squaw Brook,Stream,Hamilton,New York,43.7408981,-74.2945939
966167,Squaw Island,Island,Nassau,New York,40.627046,-73.4601249
966168,Squaw Island,Island,Tioga,New York,42.0903521,-76.2757666
966171,Squaw Lake,Lake,Hamilton,New York,43.63331101,-74.73907837
966172,Squaw Mountain,Summit,Hamilton,New York,43.7270094,-74.3420956
966173,Squaw Mountain,Summit,Essex,New York,43.9295032,-73.7740209
966174,Squaw Point,Cape,Yates,New York,42.568682,-76.9155165
966175,Squaw Swamp,Swamp,Rensselaer,New York,42.5403588,-73.493445
971990,Squaw Island,Island,Jefferson,New York,44.0564433,-76.2107641
977049,Squaw Creek,Stream,St. Lawrence,New York,44.7875601,-75.2763233
983094,Chesquaw Branch,Stream,Swain,North Carolina,35.4406462,-83.6890592
1032267,Squaw Creek,Stream,Hettinger,North Dakota,46.4475057,-102.6543305
1032268,Squaw Creek,Stream,"McKenzie, Dunn",North Dakota,47.6213982,-102.4724048
1032269,Squaw Creek Bay,Bay,Dunn,North Dakota,47.6041755,-102.4337921
1032270,Squaw Point,Cape,Bottineau,North Dakota,48.9886217,-100.3504184
1035181,Squaw Creek,Stream,McKenzie,North Dakota,47.5922379,-103.331303
1035183,Squaw Gap,Populated Place,McKenzie,North Dakota,47.4889052,-103.9274263
1046611,Squaw Island,Island,Sandusky,Ohio,41.4531072,-82.9951934
1057737,Squaw Harbor,Bay,Ottawa,Ohio,41.6553269,-82.8251877
1066814,Little Squaw Creek,Stream,Trumbull,Ohio,41.1428355,-80.7034106
1066976,Squaw Creek,Stream,Trumbull,Ohio,41.1661686,-80.7109111
1078010,Squaw Valley Lake,Reservoir,Stark,Ohio,40.73430937,-81.1578481
1078207,Squaw Valley Park Lake,Reservoir,Trumbull,Ohio,41.20942093,-80.67508942
1083208,Squawtown (historical),Populated Place,Pickaway,Ohio,39.5092284,-82.983237
1098468,Squaw Creek,Stream,"Pottawatomie, Lincoln",Oklahoma,35.4317362,-96.8422438
1098472,Squaw Creek,Stream,Blaine,Oklahoma,35.6319939,-98.5656283
1098474,Squaw Hollow,Valley,Mayes,Oklahoma,36.35758643,-95.29746171
1116506,Squaw Creek Gap,Gap,Jackson,Oregon,42.0662398,-122.9364283
1123289,Little Squaw Flat,Swamp,Klamath,Oregon,42.21186827,-120.9443782
1123290,Little Squaw Flat Reservoir,Reservoir,Klamath,Oregon,42.22248318,-120.9378208
1127473,Squaw Butte,Summit,Lake,Oregon,42.25847244,-120.244281
1127475,Squaw Butte,Summit,Wheeler,Oregon,44.7595785,-120.1341817
1127478,Squaw Creek,Stream,Curry,Oregon,42.4684427,-124.3631578
1127479,Squaw Creek,Stream,Douglas,Oregon,42.9190056,-123.4500688
1127480,Squaw Creek,Stream,Douglas,Oregon,43.6037286,-123.4642593
1127481,Squaw Creek,Stream,Lane,Oregon,44.1448454,-123.2948173
1127488,Squaw Creek Reservoir,Reservoir,Malheur,Oregon,43.71980909,-117.7326128
1127493,Squaw Flat,Flat,Lake,Oregon,42.168221,-119.9621701
1127495,Squaw Flat,Flat,Klamath,Oregon,42.6943167,-120.9513747
1127496,Squaw Flat,Swamp,Klamath,Oregon,42.2226539,-120.9713694
1127497,Squaw Hollow,Valley,Gilliam,Oregon,45.185407,-120.3011473
1127499,Squaw Lake,Lake,Lake,Oregon,43.06500873,-120.7398945
1131217,Squaw Creek,Stream,Lake,Oregon,42.1748877,-119.9566145
1135318,Squaw Creek,Stream,Douglas,Oregon,43.0984494,-123.4367392
1138084,Big Squaw Mountain,Summit,Douglas,Oregon,43.14126929,-122.7743771
1147066,North Squaw Tip,Summit,Jackson,Oregon,42.45141422,-122.333941
1148444,Right Fork Squaw Creek,Stream,Jackson,Oregon,42.033739,-122.9872634
1150085,South Squaw Tip,Summit,Jackson,Oregon,42.44095116,-122.3281298
1150221,Squaw Butte,Summit,Lake,Oregon,43.55160664,-120.7756952
1150224,Squaw Butte,Summit,Lake,Oregon,43.055876,-120.749896
1150226,Squaw Butte Creek,Stream,Lake,Oregon,42.2134949,-120.2285675
1150229,Squaw Creek,Stream,Josephine,Oregon,42.2778907,-123.6478466
1150231,Squaw Creek,Stream,"Grant, Harney",Oregon,44.0065433,-118.7002142
1150235,Squaw Creek,Stream,Lincoln,Oregon,44.4101203,-123.9123363
1150236,Squaw Creek,Stream,Lincoln,Oregon,44.48256,-124.08398
1150245,Squaw Creek,Stream,Jackson,Oregon,42.034504,-123.106699
1150246,Squaw Creek,Stream,Jackson,Oregon,42.7904032,-122.631152
1150247,Squaw Creek,Stream,Lake,Oregon,42.9168105,-121.0747163
1150248,Squaw Creek,Stream,Douglas,Oregon,42.9687331,-122.7019903
1150256,Squaw Creek,Stream,"Union, Grant, Umatilla",Oregon,44.9951362,-118.5449545
1150268,Squaw Flat,Flat,Douglas,Oregon,42.9706777,-122.6786564
1150271,Squaw Flat,Flat,Lake,Oregon,42.1276583,-120.8021914
1150275,Squaw Gulch,Valley,Josephine,Oregon,42.36228966,-123.5252844
1150278,Squaw Lake,Lake,Klamath,Oregon,42.47094288,-122.2722918
1150280,Squaw Lakes,Lake,Jackson,Oregon,42.04047036,-123.0203121
1150286,Squaw Mountain,Summit,Jackson,Oregon,42.06336133,-122.9882101
1150287,Squaw Mountain,Summit,Josephine,Oregon,42.1593452,-123.4533364
1150288,Squaw Mountain,Summit,Josephine,Oregon,42.33142992,-123.666699
1150291,Squaw Peak,Summit,Jackson,Oregon,42.0696414,-123.0119555
1150292,Squaw Prairie,Flat,Jackson,Oregon,42.7879034,-122.6175404
1150295,Squaw Spring,Spring,Lake,Oregon,42.120908,-120.8102751
1150296,Squaw Spring,Spring,Lake,Oregon,42.8991042,-121.0474501
1150303,Squaw Valley,Valley,Curry,Oregon,42.52101708,-124.3616845
1154344,West Fork Squaw Creek,Stream,Josephine,Oregon,42.307219,-123.64911
1154345,East Fork Squaw Creek,Stream,Josephine,Oregon,42.307219,-123.64911
1154983,Squaw Creek,Stream,Klamath,Oregon,42.6012465,-121.9469621
1157359,Squaw Flat Reservoir Number Two,Reservoir,Malheur,Oregon,42.53602865,-117.2389967
1160454,Squaw Flat,Flat,Lake,Oregon,43.5276343,-120.7205503
1160720,Squaw Bluff,Cliff,Curry,Oregon,42.8262198,-124.5178861
1166804,Squaw Lake,Lake,Deschutes,Oregon,43.6823371,-120.5163962
1188365,Squaw Run,Stream,Lawrence,Pennsylvania,40.8761746,-80.2636732
1188366,Squaw Run,Stream,Allegheny,Pennsylvania,40.4845129,-79.8772723
1188367,Squaw Valley,Valley,Butler,Pennsylvania,41.17153761,-79.69496155
1271176,Squaw Branch,Stream,"Lewis, Lawrence",Tennessee,35.4389655,-87.4752951
1347773,Squaw Creek,Stream,"Hood, Somervell",Texas,32.2465319,-97.719194
1369063,Squaw Creek,Stream,"Haskell, Throckmorton",Texas,33.3337104,-99.4536933
1369064,Squaw Creek,Stream,"Gillespie, Mason",Texas,30.5385206,-99.0867169
1369065,Squaw Creek,Stream,Hardeman,Texas,34.4634037,-99.8048186
1369066,Squaw Creek,Stream,Collingsworth,Texas,34.8581079,-100.4690135
1369069,Squaw Mountain,Summit,Jack,Texas,33.3670548,-98.3144932
1369070,Squaw Pass,Gap,Hudspeth,Texas,30.8251379,-105.0238306
1369071,Squaw Peak,Summit,Pecos,Texas,30.692112,-101.8017919
1369072,Squaw Peak,Summit,Hudspeth,Texas,30.820138,-105.0166082
1369073,Squaw Spring,Spring,Hudspeth,Texas,30.79720769,-105.0111983
1369074,Squaw Spring,Spring,Hudspeth,Texas,30.82392909,-105.3153427
1369075,Squaws Teat,Summit,Brewster,Texas,30.5490455,-103.4660103
1369076,Squawteat Peak,Summit,Pecos,Texas,30.8940447,-102.3237491
1380594,Squaw Mountain,Populated Place,Jack,Texas,33.3612217,-98.3208824
1384156,Squaw Creek,Stream,Hudspeth,Texas,30.7259732,-105.0768876
1384264,Squaw Creek,Stream,Parker,Texas,32.7406848,-97.6522489
1405542,Little Squaw Creek,Stream,Yukon-Koyukuk,Alaska,67.5866667,-148.1516667
1405543,Little Squaw Lake,Lake,Yukon-Koyukuk,Alaska,67.59130435,-148.1188573
1405544,Little Squaw Peak,Summit,Yukon-Koyukuk,Alaska,67.54761063,-148.2037882
1410080,Squaw Creek,Stream,Lake and Peninsula,Alaska,58.935,-157.0372222
1410081,Squaw Creek,Stream,Dillingham,Alaska,59.0330556,-158.5136111
1410082,Squaw Creek,Stream,Valdez-Cordova,Alaska,61.3661111,-145.2708333
1410083,Squaw Creek,Stream,Valdez-Cordova,Alaska,61.5516667,-143.8719444
1410084,Squaw Creek,Stream,Matanuska-Susitna,Alaska,62.0691667,-152.6658333
1410085,Squaw Creek,Stream,Yukon-Koyukuk,Alaska,65.3744444,-144.8980556
1410086,Squaw Creek,Stream,Yukon-Koyukuk,Alaska,65.8341667,-146.7583333
1410087,Squaw Creek,Stream,Yukon-Koyukuk,Alaska,66.9186111,-150.9105556
1410088,Squaw Creek,Stream,Yukon-Koyukuk,Alaska,67.5977778,-148.21
1410089,Squaw Creek,Stream,Matanuska-Susitna,Alaska,61.8727778,-147.5955556
1410090,Squaw Creek,Stream,Yukon-Koyukuk,Alaska,65.5175,-150.1586111
1410092,Squaw Crossing,Channel,Yukon-Koyukuk,Alaska,65.095,-151.7819444
1410093,Squaw Crossing Slough,Stream,Yukon-Koyukuk,Alaska,65.1466667,-151.7691667
1410094,Squaw Gulch,Valley,Southeast Fairbanks,Alaska,64.16387507,-141.1346733
1410095,Squaw Island,Island,Valdez-Cordova,Alaska,61.4502778,-142.6069444
1410096,Squaw Lake,Lake,Matanuska-Susitna,Alaska,61.88864081,-147.4055298
1410097,Squaw Lake,Lake,Yukon-Koyukuk,Alaska,67.60890973,-148.2107335
1410098,Squaw Mountain,Summit,Southeast Fairbanks,Alaska,65.05830053,-141.0094255
1410100,Squaw Point,Cape,Yukon-Koyukuk,Alaska,65.1055556,-151.7444444
1410101,Squaw Rapids,Rapids,Yukon-Koyukuk,Alaska,67.32289166,-150.7120007
1414956,Squaw Bay,Bay,Valdez-Cordova,Alaska,60.8347222,-147.8241667
1414957,Squaw Creek,Stream,Prince of Wales-Hyder,Alaska,56.1311111,-133.0888889
1414958,Squaw Mountain,Summit,Prince of Wales-Hyder,Alaska,55.06663279,-133.1539607
1419289,Squaw Harbor,Populated Place,Aleutians East,Alaska,55.2433333,-160.5533333
1427725,East Squaw Canyon,Valley,Uintah,Utah,39.6788541,-109.7295814
1429026,Indian Squaw Rock,Pillar,Juab,Utah,39.8860508,-113.8505511
1432875,Squaw Bench,Bench,Kane,Utah,37.3905421,-111.653504
1432876,Squaw Butte,Summit,"Weber, Rich",Utah,41.3728658,-111.4557272
1432878,Squaw Canyon,Valley,San Juan,Utah,38.15392662,-109.7535438
1432879,Squaw Creek,Stream,Iron,Utah,37.6746992,-113.053004
1432880,Squaw Fill,Valley,Carbon,Utah,39.7541301,-110.5421029
1432881,Squaw Flat,Flat,San Juan,Utah,38.1633207,-109.7898449
1432882,Squaw Flat,Flat,Weber,Utah,41.3663302,-111.449091
1432883,Squaw Flat,Flat,Box Elder,Utah,41.3318758,-112.496073
1432884,Squaw Gulch,Valley,Beaver,Utah,38.4424613,-113.2702418
1432885,Squaw Hill,Summit,Uintah,Utah,40.55445192,-109.0776764
1432887,Squaw Park,Flat,Grand,Utah,38.812483,-109.3778952
1432888,Squaw Peak,Summit,Beaver,Utah,38.4205173,-113.276353
1432890,Squaw Ridge,Ridge,Uintah,Utah,40.2027442,-109.091507
1432891,Squaw Spring,Spring,Garfield,Utah,37.86103141,-110.7279478
1432892,Squaw Spring,Spring,Garfield,Utah,38.07911961,-111.5817304
1432893,Squaw Spring,Spring,Beaver,Utah,38.43391661,-113.2818684
1432894,Squaw Spring,Spring,Emery,Utah,39.20679747,-110.6404632
1432895,Squaw Springs,Spring,Box Elder,Utah,41.32111987,-112.4956122
1434118,West Squaw Draw,Valley,Uintah,Utah,39.6799651,-109.7348595
1434869,Squaw Canyon,Valley,Kane,Utah,37.13461734,-111.4972769
1434957,Squaw Spring,Spring,San Juan,Utah,38.14239547,-109.7940724
1437691,Squaw Crossing,Crossing,Uintah,Utah,39.9688538,-109.6693036
1446066,Squaw Basin,Basin,Duchesne,Utah,40.6360564,-110.6651648
1446067,Squaw Basin Creek,Stream,Duchesne,Utah,40.6388342,-110.6759984
1446068,Squaw Bench,Bench,Kane,Utah,37.4641502,-112.176582
1446069,Squaw Canyon,Valley,Washington,Utah,37.37819928,-113.4796626
1446070,Squaw Creek,Stream,Kane,Utah,37.4652615,-112.138247
1446071,Squaw Creek,Stream,Wasatch,Utah,40.1244002,-111.1701701
1446072,Squaw Creek,Stream,Morgan,Utah,41.2421653,-111.3471396
1446073,Squaw Creek,Stream,Duchesne,Utah,40.4074475,-110.7723842
1446074,Squaw Flat,Flat,Cache,Utah,41.6682697,-111.5327101
1446075,Squaw Hollow,Valley,Sevier,Utah,38.80305696,-111.6842896
1446076,Squaw Hollow,Valley,Utah,Utah,40.34810722,-111.69292
1446077,Squaw Hollow,Valley,Iron,Utah,37.7669211,-112.897445
1446078,Squaw Lake,Lake,Duchesne,Utah,40.65785635,-110.656014
1446079,Squaw Ledge,Bench,Sevier,Utah,38.8527439,-111.8638114
1446080,Squaw Mountain,Summit,Utah,Utah,40.2718939,-111.6166615
1446081,Squaw Pass,Gap,"Summit, Duchesne",Utah,40.7655,-110.5065519
1446082,Squaw Peak,Summit,Duchesne,Utah,40.70018559,-110.6433598
1446083,Squaw Spring,Spring,Sanpete,Utah,39.60899361,-111.6631292
1446084,Squaw Spring,Spring,Uintah,Utah,40.59519607,-109.5635909
1446085,Squaw Spring,Spring,Uintah,Utah,40.5994992,-109.8204838
1446086,Squaw Spring,Spring,Uintah,Utah,40.63528287,-109.3348734
1449056,Squaw Water Hole,Lake,San Juan,Utah,37.65299401,-109.8184215
1449057,Squaw Water Spring,Spring,San Juan,Utah,37.6586049,-109.8312426
1449930,Squaw Spring,Spring,San Juan,Utah,38.44983167,-109.2924689
1450214,Squaw and Papoose Rock,Pillar,San Juan,Utah,37.8416557,-110.2140251
1454627,Squaw Butte,Summit,San Juan,Utah,38.15614464,-109.7767554
1508658,Squaw Canyon,Valley,Lincoln,Washington,47.7371031,-118.0371921
1508664,Squaw Island,Island,Clark,Washington,45.8490036,-122.7787134
1508665,Squaw Peak,Summit,Columbia,Washington,46.03038312,-117.8917117
1508667,Squaw Spring,Spring,Garfield,Washington,46.12402813,-117.5864542
1509698,Squaw Lake,Lake,Skamania,Washington,45.67364268,-121.9319778
1511562,Squaw Creek,Stream,Clallam,Washington,48.0345178,-124.5327166
1512688,Squaw Mountain,Summit,Okanogan,Washington,48.184044,-119.0616954
1526448,Squaw Butte,Summit,Skamania,Washington,46.11705411,-121.8023157
1526449,Squaw Creek,Stream,Skamania,Washington,46.3356716,-121.671474
1526450,Squaw Creek,Stream,Stevens,Washington,48.8951884,-117.82693
1526452,Squaw Creek,Stream,Jefferson,Washington,47.6353655,-123.6451799
1526454,Squaw Creek,Stream,Okanogan,Washington,48.570437,-119.0044795
1526455,Squaw Creek Ridge,Ridge,"Chelan, Okanogan",Washington,48.05755701,-120.130789
1526456,Squaw Islands,Island,Klickitat,Washington,45.648454,-121.1981269
1526457,Squaw Lake,Lake,Pierce,Washington,46.78622112,-121.8335658
1526458,Squaw Lake,Lake,Kittitas,Washington,47.53478447,-121.1139651
1526459,Squaw Lake,Lake,Chelan,Washington,47.83344322,-120.8236184
1526461,Squaw Valley,Valley,Pend Oreille,Washington,48.48091604,-117.0500712
1574752,Squaw Bay,Bay,Sawyer,Wisconsin,45.7219002,-91.4965521
1574756,Squaw Creek,Stream,Menominee,Wisconsin,45.0255304,-88.775662
1574757,Squaw Creek,Stream,Langlade,Wisconsin,45.3266324,-88.9459444
1574758,Squaw Creek,Stream,Forest,Wisconsin,45.471907,-89.0253927
1574759,Squaw Creek,Stream,Lincoln,Wisconsin,45.5488458,-89.4915196
1574761,Squaw Creek,Stream,Marinette,Wisconsin,45.4496912,-87.8434478
1574762,Squaw Creek,Stream,"Price, Lincoln",Wisconsin,45.455521,-89.9740331
1574764,Squaw Creek,Stream,Jackson,Wisconsin,44.2621831,-90.871531
1574765,Squaw Creek,Stream,"Marathon, Wood",Wisconsin,44.693297,-90.0626301
1574768,Squaw Island,Island,Door,Wisconsin,44.8349947,-87.5562095
1574769,Squaw Lake,Lake,Outagamie,Wisconsin,44.27639869,-88.69665761
1574770,Squaw Lake,Lake,Marinette,Wisconsin,45.29583436,-88.22816443
1574771,Squaw Lake,Lake,Langlade,Wisconsin,45.32260999,-89.20823762
1574772,Squaw Lake,Lake,Lincoln,Wisconsin,45.5337938,-89.48284034
1574775,Squaw Mound,Summit,Jackson,Wisconsin,44.2860727,-90.6648592
1574777,Squaw Point,Cape,Bayfield,Wisconsin,46.8813206,-91.0893533
1576667,White Squaw Lake,Lake,Vilas,Wisconsin,46.1113393,-89.4095866
1579715,Little Squaw Lake,Lake,Oconto,Wisconsin,45.06011582,-88.25297972
1580516,Squaw Creek,Stream,Price,Wisconsin,45.7080141,-90.3984853
1580519,Squaw Creek,Stream,Ashland,Wisconsin,46.2663405,-90.7082387
1580520,Squaw Lake,Lake,Oconto,Wisconsin,45.06535503,-88.24806484
1580849,Squaw Creek,Stream,Bayfield,Wisconsin,46.8785429,-91.0646315
1581733,Squaw Lake,Lake,St. Croix,Wisconsin,45.18082946,-92.61542179
1594741,South Squaw Creek,Stream,Campbell,Wyoming,44.7135941,-105.6455617
1594940,Squaw Butte,Summit,Fremont,Wyoming,43.0591256,-107.8289705
1594941,Squaw Butte,Summit,Campbell,Wyoming,44.78434125,-105.2469642
1594942,Squaw Butte,Summit,Sheridan,Wyoming,44.8899868,-106.2253094
1594943,Squaw Buttes,Summit,Crook,Wyoming,44.8072069,-104.544958
1594944,Squaw Creek,Stream,Teton,Wyoming,43.3818731,-110.7404796
1594945,Squaw Creek,Stream,Natrona,Wyoming,42.8096869,-106.3794728
1594946,Squaw Creek,Stream,Campbell,Wyoming,44.683316,-105.5794481
1594947,Squaw Creek,Stream,Sheridan,Wyoming,44.8447075,-106.1139148
1594949,Squaw Hill,Summit,Platte,Wyoming,41.8016389,-105.0299737
1594950,Squaw Lake,Lake,Fremont,Wyoming,42.88329151,-109.1216754
1594951,Squaw Mountain,Summit,Platte,Wyoming,41.9249713,-105.2305358
1594952,Squaw Peak,Summit,Park,Wyoming,44.90176377,-109.7967243
1594953,Squaw Rock,Summit,Platte,Wyoming,41.9249713,-105.2305358
1594954,Squaw Teat,Summit,Sublette,Wyoming,42.3605087,-109.2454025
1594955,Squaw Teat Butte,Summit,Hot Springs,Wyoming,43.7798565,-108.989108
1594956,Squaw Teats,Summit,Park,Wyoming,44.10947,-108.57647
1599499,East Fork Squaw Creek,Stream,Sublette,Wyoming,42.5974512,-109.2248492
1601412,Middle Fork Squaw Creek,Stream,Sublette,Wyoming,42.600229,-109.2248492
1603298,Squaw Basin,Basin,Teton,Wyoming,43.7427263,-110.1146291
1603299,Squaw Canyon,Valley,Teton,Wyoming,43.51795469,-111.0020607
1603300,Squaw Creek,Stream,Albany,Wyoming,41.1263633,-106.065288
1603301,Squaw Creek,Stream,"Natrona, Carbon",Wyoming,42.3613539,-106.1383502
1603302,Squaw Creek,Stream,Sublette,Wyoming,42.5721728,-109.2806836
1603303,Squaw Creek,Stream,Fremont,Wyoming,42.848014,-108.734284
1603304,Squaw Creek,Stream,Lincoln,Wyoming,43.1424233,-110.9332625
1603305,Squaw Creek,Stream,Teton,Wyoming,43.3927052,-110.8065939
1603306,Squaw Creek,Stream,"Teton, Fremont",Wyoming,43.6405022,-110.1365718
1603307,Squaw Creek,Stream,Washakie,Wyoming,44.1160726,-107.2595127
1603308,Squaw Creek,Stream,Park,Wyoming,44.3463423,-109.0984761
1603309,Squaw Creek,Stream,Park,Wyoming,44.8813338,-109.655172
1603310,Squaw Flat,Flat,Lincoln,Wyoming,43.1415901,-110.9324292
1603311,Squaw Fork Canyon,Valley,Lincoln,Wyoming,43.14289821,-110.9381169
1603312,Squaw Hollow (historical),Populated Place,Sweetwater,Wyoming,41.1635727,-109.5604184
1603313,Squaw Mountain,Summit,Converse,Wyoming,42.49338771,-105.8442236
1603315,Squaw Peaks,Summit,Converse,Wyoming,42.34238876,-105.4177788
1603316,Squaw Place,Populated Place,Albany,Wyoming,42.3699671,-105.7038878
1603317,Squaw Spring,Spring,Natrona,Wyoming,42.46253987,-106.0813075
1604476,South Fork Squaw Creek,Stream,Fremont,Wyoming,42.7810685,-108.8540099
1604491,Squaw Hollow,Valley,Sweetwater,Wyoming,41.17510253,-109.5734302
1604531,West Fork Squaw Creek,Stream,Sublette,Wyoming,42.5974512,-109.2248492
1605109,Squaw Canyon,Valley,Carbon,Wyoming,41.5655165,-107.5092308
1605139,Squaw Rock,Summit,Goshen,Wyoming,41.6716401,-104.263846
1620587,Little Squaw Creek,Stream,Delta,Michigan,45.7852467,-86.9701373
1621748,Squaw Creek,Stream,Delta,Michigan,45.795246,-86.9854152
1621749,Squaw Creek,Stream,Alger,Michigan,46.2421763,-86.6640423
1621750,Squaw Lake,Lake,Lake,Michigan,44.12041928,-86.01206702
1621751,Squaw Lake,Lake,Iron,Michigan,46.11773863,-88.92517901
1621752,Squaw Lake,Lake,Alger,Michigan,46.22403366,-86.67636904
1621753,Squaw Ponds,Lake,Alger,Michigan,46.2399541,-86.6698755
1628289,Squaw Bayou,Stream,St. Landry,Louisiana,30.7618544,-91.8112265
1646886,Squawberry,Populated Place,Carter,Tennessee,36.1306762,-82.0692877
1654967,Squaw Valley,Valley,Plumas,California,39.97819586,-120.4075412
1659849,Squaw Hill,Populated Place,Tehama,California,39.9079358,-122.0930416
1659850,Squaw Hill,Summit,Mariposa,California,37.46215589,-119.7577331
1659851,Squaw Rock,Summit,Mendocino,California,38.86978011,-123.420063
1659852,Squaw Rock,Summit,Mendocino,California,38.91254668,-123.0559058
1659853,Squaw Valley,Populated Place,Fresno,California,36.7402261,-119.246785
1661497,Squaw Hill,Summit,Riverside,California,33.83562133,-116.3079059
1661498,Squaw Tit,Summit,San Diego,California,32.65037763,-116.1379525
1665285,Squaw Prairie,Area,Humboldt,California,41.0870713,-123.8831188
1665286,Squaw Tit,Summit,Humboldt,California,41.07382939,-123.98189
1665432,Squaw Camp Spring,Spring,Trinity,California,40.7145874,-123.1316972
1670250,Squaw Hill Ferry (historical),Crossing,Tehama,California,39.9090469,-122.0916528
1768302,Squaw Creek Reservoir,Reservoir,Dawes,Nebraska,42.67547255,-103.3759475
1792217,Lower Squaw Creek Flowage,Reservoir,Price,Wisconsin,45.78689302,-90.3503488
1792926,Squaw Creek Flowage 6,Reservoir,Price,Wisconsin,45.80341447,-90.3407359
1793153,Squaw Mound Flowage,Reservoir,Jackson,Wisconsin,44.28283694,-90.6555627
1803754,Squaw Creek,Stream,Mayes,Oklahoma,36.352808,-95.305624
1847440,Squaw Creek Tank,Reservoir,Catron,New Mexico,33.47929763,-107.9593345
1863319,Squaw Creek Reservoir,Reservoir,"Hood, Somervell",Texas,32.2884749,-97.7603064
2069951,Squaw Lake,Lake,Pine,Minnesota,45.8122222,-92.9605556
2109219,Squaw Brook,Stream,Barry,Michigan,42.52,-85.1613889
2395945,City of Squaw Lake,Civil,Itasca,Minnesota,47.62748778,-94.13813921
2408799,Squaw Valley Census Designated Place,Census,Fresno,California,36.69978551,-119.1993586
2507567,Squaw Ridge,Ridge,Josephine,Oregon,42.33138345,-123.6665973
2784727,Squaw Lake,Lake,Waushara,Wisconsin,44.048,-89.2429
2803763,Squaw Canyon Springs,Spring,Plumas,California,40.0813543,-120.4815071
0,South Squaw Creek,Stream,"Marathon, Wood",Wisconsin,44.700164,-90.034936
1,Squaw Meadows,Flat,Valley,Idaho,45.1643431,-115.997068
